TRANSPORTER-16 OBJECT AL
1 68450U 26067AL  26104.13654009  .00004332  00000+0  21675-3 0  9990
2 68450  97.4498  63.5653 0000861 158.3037 201.8233 15.17940895  2220
