{
  "norad_id": 68450,
  "name": "TRANSPORTER-16 OBJECT AL",
  "history": [
    {
      "epoch": "2026-04-14T03:16:37.063776Z",
      "apogee_km": 512.6584011564855,
      "perigee_km": 511.4709438002501,
      "latitude_deg": -4.602016908490362e-05,
      "longitude_deg": 172.09358007851176,
      "height_km": 515.7022626188483,
      "semi_major_axis_km": 6890.201672478367,
      "eccentricity": 8.617e-05,
      "inclination_deg": 97.4498,
      "raan_deg": 63.5653,
      "arg_perigee_deg": 158.3037,
      "mean_anomaly_deg": 201.8233,
      "mean_motion_rev_day": 15.17940895
    }
  ]
}